[{"OBJECT_NAME":"STARLINK-6029","OBJECT_ID":"2023-078AN","EPOCH":"2026-03-09T23:24:27.768096","MEAN_MOTION":14.98329288,"ECCENTRICITY":0.00028402,"INCLINATION":70.0008,"RA_OF_ASC_NODE":343.7116,"ARG_OF_PERICENTER":268.0414,"MEAN_ANOMALY":92.042,"EPHEMERIS_TYPE":0,"CLASSIFICATION_TYPE":"U","NORAD_CAT_ID":56803,"ELEMENT_SET_NO":999,"REV_AT_EPOCH":15272,"BSTAR":-3.8886079e-5,"MEAN_MOTION_DOT":-5.57e-6,"MEAN_MOTION_DDOT":0},{"OBJECT_NAME":"CZ-2C R\/B","OBJECT_ID":"2023-187D","EPOCH":"2026-03-09T21:18:27.461376","MEAN_MOTION":14.91546811,"ECCENTRICITY":0.00358476,"INCLINATION":98.1132,"RA_OF_ASC_NODE":178.247,"ARG_OF_PERICENTER":167.8673,"MEAN_ANOMALY":192.3416,"EPHEMERIS_TYPE":0,"CLASSIFICATION_TYPE":"U","NORAD_CAT_ID":58499,"ELEMENT_SET_NO":999,"REV_AT_EPOCH":12301,"BSTAR":0.00023879444,"MEAN_MOTION_DOT":2.36e-5,"MEAN_MOTION_DDOT":0}]
